ELECTRON KICK STAGE R/B 
1 67229U 25307B   25360.62815249  .00469702  66212-4  14760-2 0  9995
2 67229  42.0005  91.5445 0238725 274.6700  82.6921 15.57717306   831
ELECTRON R/B            
1 67230U 25307C   25355.36249005  .00071881  81069-5  20248-3 0  9997
2 67230  41.9820 123.1026 0261408 268.1410  88.9482 15.55087105    19
CZ-12A R/B              
1 67231U 25308A   25361.00836486  .02760668  44413-5  56960-3 0  9994
2 67231  69.7045  51.8037 0016726 146.8937 213.3338 16.30419666   641
BLUEBIRD 6              
1 67232U 25309A   25360.75210442  .00001165  00000+0  72651-4 0  9997
2 67232  53.0002  40.8851 0010477 329.2446  30.7932 15.17699903   405
LVM3 R/B                
1 67233U 25309B   25360.74928094  .00001231  00000+0  72627-4 0  9993
2 67233  52.9350  40.7629 0010474 355.6984   4.3917 15.19340101   404
2025-310A               
1 67234U 25310A   25359.97157760  .00103655  21594-5  27305-3 0  9995
2 67234  97.9672   4.5015 0305825  77.7397 285.7915 15.47189508    63
2025-310B               
1 67235U 25310B   25360.74700637  .00096045  21675-5  24689-3 0  9996
2 67235  97.9613   5.3742 0302710  73.1908 290.2311 15.48206704   186
